# From MPC 84931
P/2012 F2 (PANSTARRS),e,14.6975,226.9681,33.2974,6.338516,0.0617622,0.54059543,230.4238,06/23.0/2023,2000,g 12.0,4.0
# From MPEC 2022-ED3
P/2012 G1 (PANSTARRS),e,12.1699,283.2644,266.1128,4.164961,0.1159545,0.32910868,115.5214,06/23.0/2023,2000,g 15.0,4.0
# From MPC 80898
P/2012 K3 (Gibbs),e,13.1863,125.8205,172.2337,3.629187,0.1425575,0.42225302,200.5134,06/23.0/2023,2000,g 15.0,4.0
# From MPC 88326
P/2012 NJ (La Sagra),e,84.5180,315.6172,338.3878,8.466580,0.0400076,0.84666588,161.0112,06/23.0/2023,2000,g 14.5,4.0
# From MPC 81470
P/2012 O1 (McNaught),e,7.4264,91.9147,238.3463,3.541984,0.1478543,0.59409323,232.5848,06/23.0/2023,2000,g 17.5,4.0
# From MPC 80899
P/2012 O2 (McNaught),e,24.4620,120.6802,183.4753,3.626822,0.1426970,0.53175961,215.4111,06/23.0/2023,2000,g 17.0,4.0
# From MPC 82320
P/2012 T2 (PANSTARRS),e,12.5695,73.7180,310.8923,5.725897,0.0719348,0.16246615,266.2183,06/23.0/2023,2000,g 10.0,4.0
# From MPC 80900
P/2012 T3 (PANSTARRS),e,9.5553,114.3535,195.5474,6.151902,0.0645937,0.61641586,262.5882,06/23.0/2023,2000,g 15.0,4.0
# From MPC 82720
P/2012 U2 (PANSTARRS),e,10.7593,185.3230,228.2853,7.130178,0.0517671,0.50027667,200.2830,06/23.0/2023,2000,g 12.5,4.0
# From MPC 84024
P/2012 US27 (Siding Spring),e,39.3705,49.2099,0.8449,5.163665,0.0839976,0.64835068,319.1594,06/23.0/2023,2000,g 13.5,4.0
# From MPC 82721
P/2012 WA34 (Lemmon-PANSTARRS),e,6.0827,93.5529,356.6483,4.677886,0.0974159,0.34345799,358.4527,06/23.0/2023,2000,g 13.5,4.0
# From MPC 82721
P/2013 AL76 (Catalina),e,144.8835,146.0311,27.0403,6.501011,0.0594611,0.68572473,229.3645,06/23.0/2023,2000,g 16.0,4.0
# From MPC 91612
P/2013 G1 (Kowalski),e,5.4571,221.2976,51.5429,6.899578,0.0543839,0.51075657,189.5461,06/23.0/2023,2000,g 11.0,4.0
# From MPC 84025
P/2013 G4 (PANSTARRS),e,5.9161,339.6280,214.6041,4.437083,0.1054527,0.40909528,38.8936,06/23.0/2023,2000,g 15.0,4.0
# From MPC 91613
P/2013 J2 (McNaught),e,15.5045,289.3172,37.9011,6.223783,0.0634779,0.65706674,227.4135,06/23.0/2023,2000,g 13.0,4.0
# From MPC 86229
P/2013 N3 (PANSTARRS),e,2.1730,17.4874,323.9799,7.397120,0.0489903,0.59269520,167.1414,06/23.0/2023,2000,g 13.0,4.0
# From MPC 85834
P/2013 N5 (PANSTARRS),e,23.4593,187.1550,176.9577,6.797069,0.0556188,0.73242959,202.2279,06/23.0/2023,2000,g 17.0,4.0
# From MPC 85834
P/2013 P1 (PANSTARRS),e,18.7192,160.6157,138.2509,8.585010,0.0391826,0.60407510,147.6700,06/23.0/2023,2000,g 12.0,4.0
# From MPEC 2022-V95
P/2013 R3 (Catalina-PANSTARRS),e,0.8651,341.9648,11.3352,3.031446,0.1867366,0.27560527,309.3085,06/23.0/2023,2000,g 14.0,4.0
# From unp
P/2013 R3-A (Catalina-PANSTARRS),e,0.8642,341.9196,11.4141,3.031200,0.1867593,0.27553601,309.3719,06/23.0/2023,2000,g  9.0,4.0
# From MPEC 2015-M77
P/2013 R3-B (Catalina-PANSTARRS),e,0.8654,341.9756,11.3489,3.031420,0.1867389,0.27558129,309.3033,06/23.0/2023,2000,g  9.0,4.0
# From MPC 85835
P/2013 T1 (PANSTARRS),e,24.3008,10.0796,346.1845,5.856082,0.0695494,0.62421720,250.6845,06/23.0/2023,2000,g 16.5,4.0
# From MPC 86643
P/2013 T2 (Schwartz),e,9.4559,0.8031,345.5926,3.492243,0.1510245,0.50089310,196.3359,06/23.0/2023,2000,g 16.0,4.0
# From MPC 91613
P/2013 W1 (PANSTARRS),e,4.6975,117.8377,1.2193,3.486969,0.1513673,0.59307597,153.7424,06/23.0/2023,2000,g 17.5,4.0
# From MPC101095
P/2013 YG46 (Spacewatch),e,7.8577,48.8337,242.6272,3.275069,0.1662928,0.45481604,27.8797,06/23.0/2023,2000,g 10.0,4.0
# From MPC 89728
P/2014 A2 (Hill),e,24.5521,106.6363,356.1457,5.926642,0.0683111,0.64592319,242.0237,06/23.0/2023,2000,g 15.0,4.0
# From MPC 92981
P/2014 A3 (PANSTARRS),e,13.7176,229.9789,214.1779,4.606870,0.0996770,0.24639183,6.1177,06/23.0/2023,2000,g 12.0,4.0
# From MPC102095
P/2014 C1 (TOTAS),e,2.6932,167.8170,24.0222,3.030103,0.1868607,0.45174176,285.2806,06/23.0/2023,2000,g 15.5,4.0
# From MPEC 2022-WD2
C/2014 F3 (Sheppard-Trujillo),e,6.5281,326.1952,4.7528,14.49887,0.0178527,0.60592678,13.4781,06/23.0/2023,2000,g  6.0,4.0
# From MPC 98560
P/2014 L2 (NEOWISE),e,5.1971,149.3440,182.7290,6.306287,0.0622363,0.64760990,202.7717,06/23.0/2023,2000,g 12.0,4.0
# From MPC 90769
P/2014 L3 (Hill),e,6.2633,115.5012,178.7094,8.179906,0.0421290,0.77230198,138.2197,06/23.0/2023,2000,g 16.0,4.0
# From MPC 91614
P/2014 M4 (PANSTARRS),e,3.3453,263.1706,148.0749,5.867128,0.0693531,0.59585520,214.7167,06/23.0/2023,2000,g 15.0,4.0
# From MPEC 2022-K19
P/2014 MG4 (Spacewatch-PANSTARRS),e,9.3654,311.7182,299.0040,5.013892,0.0877893,0.25882922,321.1692,06/23.0/2023,2000,g  9.5,4.0
# From MPC 98560
P/2014 O3 (PANSTARRS),e,7.7936,87.6362,204.7958,7.579404,0.0472336,0.38390364,158.4686,06/23.0/2023,2000,g 10.5,4.0
# From MPEC 2023-J29
C/2014 OG392 (PANSTARRS),e,9.0329,145.8099,254.5444,12.25718,0.0229677,0.18645706,12.7872,06/23.0/2023,2000,g  6.0,4.0
# From MPEC 2023-MA9
P/2014 OL465 (PANSTARRS),e,21.6636,309.5905,267.6950,4.688492,0.0970855,0.28068464,11.1507,06/23.0/2023,2000,g 10.5,4.0
# From MPC 91616
P/2014 U4 (PANSTARRS),e,6.4287,11.8882,347.8598,3.509611,0.1499048,0.46469977,128.8234,06/23.0/2023,2000,g 18.0,4.0
# From MPEC 2023-J29
C/2014 UN271 (Bernardinelli-Bernstein),h,01/20.5943/2031,95.4311,189.9006,326.1957,1.001812,10.950185,2000,2.5,3.2
# From MPC 95211
P/2014 V1 (PANSTARRS),e,22.5207,166.1958,177.6711,5.479465,0.0768417,0.53427384,235.7334,06/23.0/2023,2000,g 14.0,4.0
# From MPC 93586
P/2014 W1 (PANSTARRS),e,8.8361,246.2083,152.0877,4.471086,0.1042520,0.38983594,341.3469,06/23.0/2023,2000,g 15.5,4.0
# From MPC105542
P/2014 W4 (PANSTARRS),e,15.2836,33.3902,67.5799,6.586263,0.0583103,0.35379285,159.1910,06/23.0/2023,2000,g 11.0,4.0
# From MPC 94281
P/2014 X1 (Elenin),e,26.0551,61.5768,33.8608,6.203559,0.0637885,0.70992461,197.3590,06/23.0/2023,2000,g 15.0,4.0
# From MPC 92275
P/2015 A3 (PANSTARRS),e,172.5441,277.3675,249.5164,7.816641,0.0450997,0.85029190,137.4197,06/23.0/2023,2000,g 20.0,4.0
# From MPC 99270
P/2015 B1 (PANSTARRS),e,18.0603,352.9024,188.8374,9.487366,0.0337276,0.36632082,95.9575,06/23.0/2023,2000,g  8.5,4.0
# From MPC109141
P/2015 B4 (Lemmon-PANSTARRS),e,1.7646,266.0814,227.1989,8.513482,0.0396774,0.56095711,121.4904,06/23.0/2023,2000,g 11.0,4.0
# From MPC101096
P/2015 C1 (TOTAS-Gibbs),e,13.9288,348.7882,178.0623,6.571411,0.0585081,0.56164463,174.5611,06/23.0/2023,2000,g 12.5,4.0
# From MPC109141
P/2015 D5 (Kowalski),e,20.5414,74.0781,39.6264,8.950703,0.0368060,0.49039615,123.9826,06/23.0/2023,2000,g  9.0,4.0
# From MPC 96866
P/2015 D6 (Lemmon-PANSTARRS),e,20.2114,45.8133,124.9789,7.133228,0.0517339,0.36160409,151.0456,06/23.0/2023,2000,g 10.5,4.0
# From MPEC 2021-P47
P/2015 HG16 (PANSTARRS),e,18.9436,57.1520,47.1065,4.798993,0.0937516,0.35149978,314.8040,06/23.0/2023,2000,g 12.5,4.0
# From MPC 95213
P/2015 K5 (PANSTARRS),e,39.9407,134.2367,106.2801,6.727009,0.0564899,0.55165163,166.4268,06/23.0/2023,2000,g 13.5,4.0
# From MPC107684
P/2015 M2 (PANSTARRS),e,3.9688,86.5804,226.0515,7.246505,0.0505256,0.17928690,143.5245,06/23.0/2023,2000,g  8.5,4.0
# From MPC 99819
P/2015 P4 (PANSTARRS),e,8.7183,104.6533,280.7171,6.046689,0.0662869,0.58576744,179.3952,06/23.0/2023,2000,g 14.0,4.0
# From MPEC 2022-K19
P/2015 PD229 (Cameron-ISON),e,2.0241,342.6727,352.7303,7.196010,0.0510583,0.32711355,146.3690,06/23.0/2023,2000,g 11.5,2.0
# From MPC 96867
P/2015 Q2 (Pimentel),e,146.5559,228.5505,244.6667,7.353260,0.0494293,0.75086556,140.6004,06/23.0/2023,2000,g 15.5,4.0
# From MPC 98562
P/2015 R1 (PANSTARRS),e,22.7014,48.3146,300.6048,5.881105,0.0691060,0.63407668,201.3473,06/23.0/2023,2000,g 14.0,4.0
# From MPC 95734
P/2015 R2 (PANSTARRS),e,15.4835,168.5931,149.8681,4.484704,0.1037775,0.45262648,303.7959,06/23.0/2023,2000,g 14.5,4.0
# From MPC 96280
P/2015 T3 (PANSTARRS),e,13.0937,120.5019,178.6330,4.326181,0.1095335,0.50818108,359.9227,12/21.0/2014,2000,g 14.0,4.0
# From MPC102953
P/2015 TO19 (Lemmon-PANSTARRS),e,6.5019,321.6180,89.2319,4.550795,0.1015250,0.35954245,270.2430,06/23.0/2023,2000,g 14.0,4.0
# From MPC110080
P/2015 TP200 (LINEAR),e,8.7796,7.0092,82.4406,7.263447,0.0503489,0.53658571,122.2063,06/23.0/2023,2000,g 11.0,4.0
# From MPC101098
P/2015 W2 (Catalina),e,11.6122,294.1085,117.6061,7.290741,0.0500664,0.63546068,141.0635,06/23.0/2023,2000,g 13.0,4.0
# From MPEC 2022-OB6
C/2015 XY1 (Lemmon),e,148.8521,281.5553,196.1408,10844,0.0000009,0.99926889,0.0000,04/25.2092/2018,2000,g  5.5,4.0
# From MPEC 2023-J29
P/2015 X3 (PANSTARRS),e,24.4140,77.2597,306.8612,5.002883,0.0880792,0.44009023,252.7248,06/23.0/2023,2000,g 15.0,4.0
# From MPC115881
P/2015 X6 (PANSTARRS),e,4.5653,106.9303,329.7945,2.751896,0.2159016,0.17334899,211.2719,06/23.0/2023,2000,g 16.0,4.0
# From MPC100282
P/2016 A2 (Christensen),e,26.4040,291.6181,141.2868,4.753594,0.0950979,0.27106042,278.8802,06/23.0/2023,2000,g 11.5,4.0
# From MPEC 2022-OB6
P/2016 A3 (PANSTARRS),e,8.5120,187.2075,340.8787,7.877039,0.0445820,0.38608354,100.2908,06/23.0/2023,2000,g 10.0,4.0
# From MPC102098
P/2016 A7 (PANSTARRS),e,16.6060,221.4989,352.4892,5.035558,0.0872233,0.56475209,233.9808,06/23.0/2023,2000,g 16.0,4.0
# From MPEC 2021-P47
P/2016 G1 (PANSTARRS),e,10.9712,204.0168,111.1485,2.583213,0.2373907,0.21052356,195.4715,06/23.0/2023,2000,g 14.0,4.0
# From MPEC 2017-D91
P/2016 J1-A (PANSTARRS),e,14.3298,199.8065,47.2541,3.174933,0.1742217,0.22768719,84.7534,06/23.0/2023,2000,g 16.5,4.0
# From MPEC 2017-A77
P/2016 J1-B (PANSTARRS),e,14.3326,199.8113,47.1459,3.174572,0.1742514,0.22753652,84.9053,06/23.0/2023,2000,g 17.0,4.0
# From MPEC 2022-ED3
C/2016 M1 (PANSTARRS),e,90.8362,92.2719,209.9292,19593,0.0000004,0.99988700,0.0000,08/10.3715/2018,2000,g  5.0,4.0
# From MPEC 2021-P47
C/2016 N6 (PANSTARRS),e,105.8712,298.8838,162.5714,939.7585,0.0000342,0.99716951,0.0000,07/17.2876/2018,2000,g  7.0,4.0
# From MPC102099
P/2016 P1 (PANSTARRS),e,24.3758,319.4143,270.7169,3.201529,0.1720553,0.28911535,127.5627,06/23.0/2023,2000,g 15.0,4.0
# From MPEC 2023-MA9
C/2016 Q2 (PANSTARRS),h,05/12.4067/2021,109.3757,322.3179,84.5579,1.003157,7.081707,2000,6.0,4.0
# From MPEC 2023-J95
